[{"OBJECT_NAME":"NOVASAR 1","OBJECT_ID":"2018-071B","EPOCH":"2026-03-09T22:37:23.630304","MEAN_MOTION":14.96279869,"ECCENTRICITY":0.00025467,"INCLINATION":97.522,"RA_OF_ASC_NODE":305.2476,"ARG_OF_PERICENTER":88.2237,"MEAN_ANOMALY":271.9277,"EPHEMERIS_TYPE":0,"CLASSIFICATION_TYPE":"U","NORAD_CAT_ID":43619,"ELEMENT_SET_NO":999,"REV_AT_EPOCH":40809,"BSTAR":0.00014385278,"MEAN_MOTION_DOT":1.57e-5,"MEAN_MOTION_DDOT":0},{"OBJECT_NAME":"STARLINK-36156","OBJECT_ID":"2025-293D","EPOCH":"2026-03-09T11:40:19.435584","MEAN_MOTION":14.9835049,"ECCENTRICITY":0.00040142,"INCLINATION":70,"RA_OF_ASC_NODE":95.1201,"ARG_OF_PERICENTER":266.14,"MEAN_ANOMALY":93.93,"EPHEMERIS_TYPE":0,"CLASSIFICATION_TYPE":"U","NORAD_CAT_ID":67006,"ELEMENT_SET_NO":999,"REV_AT_EPOCH":1485,"BSTAR":0.00030061031,"MEAN_MOTION_DOT":3.498e-5,"MEAN_MOTION_DDOT":0}]
